NORAD_CAT_ID,OBJECT_NAME,OBJECT_TYPE,EPOCH,MEAN_MOTION,ECCENTRICITY,INCLINATION,RA_OF_ASC_NODE,ARG_OF_PERICENTER,MEAN_ANOMALY,BSTAR,MEAN_MOTION_DOT,MEAN_MOTION_DDOT,TLE_LINE0,TLE_LINE1,TLE_LINE2,SEMIMAJOR_AXIS,PERIOD,APOGEE,PERIGEE,DECAYED
52577.0,STARLINK-3836,PAYLOAD,2024-06-13 13:08:17,15.08844621,0.000124,53.2181,100.8986,94.1577,265.9557,7.2196e-05,8.61e-06,0.0,0 STARLINK-3836,1 52577U 22051AT  24165.54742730  .00000861  00000-0  72196-4 0  9990,2 52577  53.2181 100.8986 0001240  94.1577 265.9557 15.08844621115713,6917.866,95.437,540.589,538.873,0.0
52577.0,STARLINK-3836,PAYLOAD,2024-06-14 12:59:04,15.08839736,0.0001048,53.218,96.4351,105.394,254.7168,0.00018147,2.601e-05,0.0,0 STARLINK-3836,1 52577U 22051AT  24166.54102706  .00002601  00000-0  18147-3 0  9993,2 52577  53.2180  96.4351 0001048 105.3940 254.7168 15.08839736115796,6917.881,95.438,540.471,539.021,0.0
52577.0,STARLINK-3836,PAYLOAD,2024-06-14 22:31:23,15.08845333,0.0001108,53.2192,94.6506,104.7326,255.3789,3.6701e-05,2.96e-06,0.0,0 STARLINK-3836,1 52577U 22051AT  24166.93846630  .00000296  00000-0  36701-4 0  9992,2 52577  53.2192  94.6506 0001108 104.7326 255.3789 15.08845333115852,6917.864,95.437,540.496,538.963,0.0
52577.0,STARLINK-3836,PAYLOAD,2024-06-15 04:52:55,15.08851427,0.0001237,53.218,93.4615,100.844,259.2692,2.1635e-05,5.7e-07,0.0,0 STARLINK-3836,1 52577U 22051AT  24167.20342168  .00000057  00000-0  21635-4 0  9995,2 52577  53.2180  93.4615 0001237 100.8440 259.2692 15.08851427115895,6917.845,95.437,540.566,538.855,0.0
52577.0,STARLINK-3836,PAYLOAD,2024-06-15 22:22:10,15.08843429,0.0001201,53.2175,90.1899,104.2232,255.8894,-1.704e-05,-5.59e-06,0.0,0 STARLINK-3836,1 52577U 22051AT  24167.93206520 -.00000559  00000-0 -17040-4 0  9990,2 52577  53.2175  90.1899 0001201 104.2232 255.8894 15.08843429116008,6917.87,95.437,540.566,538.904,0.0
52577.0,STARLINK-3836,PAYLOAD,2024-06-16 04:43:42,15.08850534,0.0001193,53.2181,89.0024,95.055,265.0578,-1.4975e-05,-5.26e-06,0.0,0 STARLINK-3836,1 52577U 22051AT  24168.19702037 -.00000526  00000-0 -14975-4 0  9991,2 52577  53.2181  89.0024 0001193  95.0550 265.0578 15.08850534116043,6917.848,95.437,540.538,538.888,0.0
52577.0,STARLINK-3836,PAYLOAD,2024-06-16 22:12:57,15.08836909,0.0001313,53.2178,85.7305,97.6142,262.4999,-3.3477e-06,-3.41e-06,0.0,0 STARLINK-3836,1 52577U 22051AT  24168.92566869 -.00000341  00000-0 -33477-5 0  9997,2 52577  53.2178  85.7305 0001313  97.6142 262.4999 15.08836909116153,6917.89,95.438,540.663,538.847,0.0
52577.0,STARLINK-3836,PAYLOAD,2024-06-17 22:03:44,15.08839124,0.0001339,53.2187,81.2736,86.0173,274.0972,3.072e-05,2.01e-06,0.0,0 STARLINK-3836,1 52577U 22051AT  24169.91926903  .00000201  00000-0  30720-4 0  9996,2 52577  53.2187  81.2736 0001339  86.0173 274.0972 15.08839124116305,6917.883,95.438,540.674,538.822,0.0
52577.0,STARLINK-3836,PAYLOAD,2024-06-18 02:49:53,15.08843494,0.0001371,53.2189,80.3822,87.6323,272.4826,7.4091e-05,8.92e-06,0.0,0 STARLINK-3836,1 52577U 22051AT  24170.11798524  .00000892  00000-0  74091-4 0  9991,2 52577  53.2189  80.3822 0001371  87.6323 272.4826 15.08843494116409,6917.87,95.437,540.683,538.786,0.0
52577.0,STARLINK-3836,PAYLOAD,2024-06-18 10:46:49,15.0884363,0.0001369,53.2188,78.8954,86.3415,273.7734,2.0324e-05,3.6e-07,0.0,0 STARLINK-3836,1 52577U 22051AT  24170.44918627  .00000036  00000-0  20324-4 0  9995,2 52577  53.2188  78.8954 0001369  86.3415 273.7734 15.08843630116382,6917.869,95.437,540.681,538.787,0.0
52577.0,STARLINK-3836,PAYLOAD,2024-06-18 23:29:55,15.08830013,0.0001668,53.2196,76.518,88.7733,271.345,-1.0054e-05,-4.48e-06,0.0,0 STARLINK-3836,1 52577U 22051AT  24170.97911945 -.00000448  00000-0 -10054-4 0  9997,2 52577  53.2196  76.5180 0001668  88.7733 271.3450 15.08830013116535,6917.911,95.438,540.93,538.622,0.0
52577.0,STARLINK-3836,PAYLOAD,2024-06-19 10:37:37,15.08834715,0.0001842,53.2204,74.4367,85.4699,274.6503,4.2216e-05,3.84e-06,0.0,0 STARLINK-3836,1 52577U 22051AT  24171.44279722  .00000384  00000-0  42216-4 0  9992,2 52577  53.2204  74.4367 0001842  85.4699 274.6503 15.08834715116536,6917.897,95.438,541.036,538.487,0.0
52577.0,STARLINK-3836,PAYLOAD,2024-06-19 16:59:10,15.08835988,0.0001701,53.2215,73.2446,83.7142,276.4044,8.2747e-05,1.029e-05,0.0,0 STARLINK-3836,1 52577U 22051AT  24171.70775513  .00001029  00000-0  82747-4 0  9990,2 52577  53.2215  73.2446 0001701  83.7142 276.4044 15.08835988116646,6917.893,95.438,540.934,538.581,0.0
52577.0,STARLINK-3836,PAYLOAD,2024-06-19 21:45:19,15.088402,0.0001825,53.2211,72.3538,89.4673,270.6529,4.7704e-05,4.71e-06,0.0,0 STARLINK-3836,1 52577U 22051AT  24171.90647372  .00000471  00000-0  47704-4 0  9997,2 52577  53.2211  72.3538 0001825  89.4673 270.6529 15.08840200116606,6917.88,95.438,541.007,538.482,0.0
52577.0,STARLINK-3836,PAYLOAD,2024-06-20 10:28:24,15.08842068,0.000137,53.2182,69.9723,86.3552,273.7597,2.3554e-05,8.7e-07,0.0,0 STARLINK-3836,1 52577U 22051AT  24172.43639099  .00000087  00000-0  23554-4 0  9993,2 52577  53.2182  69.9723 0001370  86.3552 273.7597 15.08842068116689,6917.874,95.437,540.687,538.791,0.0
52577.0,STARLINK-3836,PAYLOAD,2024-06-20 21:36:06,15.08836732,0.0001682,53.2184,67.8912,87.1462,272.9723,0.00010893,1.446e-05,0.0,0 STARLINK-3836,1 52577U 22051AT  24172.90007386  .00001446  00000-0  10893-3 0  9994,2 52577  53.2184  67.8912 0001682  87.1462 272.9723 15.08836732116754,6917.89,95.438,540.919,538.592,0.0
52577.0,STARLINK-3836,PAYLOAD,2024-06-20 23:11:29,15.08840368,0.0001558,53.2184,67.5937,87.0179,273.0991,6.087e-05,6.81e-06,0.0,0 STARLINK-3836,1 52577U 22051AT  24172.96631317  .00000681  00000-0  60870-4 0  9998,2 52577  53.2184  67.5937 0001558  87.0179 273.0991 15.08840368116832,6917.879,95.438,540.822,538.666,0.0
52577.0,STARLINK-3836,PAYLOAD,2024-06-21 02:22:15,15.08846092,0.0001478,53.2183,66.9993,87.7227,272.3935,0.0001069,1.414e-05,0.0,0 STARLINK-3836,1 52577U 22051AT  24173.09878763  .00001414  00000-0  10690-3 0  9990,2 52577  53.2183  66.9993 0001478  87.7227 272.3935 15.08846092116850,6917.862,95.437,540.749,538.704,0.0
52577.0,STARLINK-3836,PAYLOAD,2024-06-21 21:26:53,15.08837768,0.0001606,53.2181,63.4308,90.6253,269.4923,1.7093e-05,-1.6e-07,0.0,0 STARLINK-3836,1 52577U 22051AT  24173.89367600 -.00000016  00000-0  17093-4 0  9994,2 52577  53.2181  63.4308 0001606  90.6253 269.4923 15.08837768116972,6917.887,95.438,540.863,538.641,0.0
52577.0,STARLINK-3836,PAYLOAD,2024-06-21 23:02:16,15.08844358,0.0001499,53.2188,63.1305,109.0153,251.1001,-1.7382e-05,-5.65e-06,0.0,0 STARLINK-3836,1 52577U 22051AT  24173.95991144 -.00000565  00000-0 -17382-4 0  9998,2 52577  53.2188  63.1305 0001499 109.0153 251.1001 15.08844358116919,6917.867,95.437,540.769,538.695,0.0
52577.0,STARLINK-3836,PAYLOAD,2024-06-22 22:53:03,15.08844827,0.0001328,53.2188,58.6707,100.0186,260.0956,-4.4563e-05,-9.97e-06,0.0,0 STARLINK-3836,1 52577U 22051AT  24174.95351191 -.00000997  00000-0 -44563-4 0  9991,2 52577  53.2188  58.6707 0001328 100.0186 260.0956 15.08844827117068,6917.866,95.437,540.649,538.812,0.0
52577.0,STARLINK-3836,PAYLOAD,2024-06-23 02:03:49,15.08840858,0.0001443,53.2189,58.0762,103.3912,256.7241,-2.1226e-05,-6.26e-06,0.0,0 STARLINK-3836,1 52577U 22051AT  24175.08599317 -.00000626  00000-0 -21226-4 0  9990,2 52577  53.2189  58.0762 0001443 103.3912 256.7241 15.08840858117154,6917.878,95.438,540.741,538.745,0.0
52577.0,STARLINK-3836,PAYLOAD,2024-06-23 22:43:50,15.08844288,0.0001393,53.2184,54.2115,95.1835,264.9316,5.7111e-05,6.21e-06,0.0,0 STARLINK-3836,1 52577U 22051AT  24175.94710879  .00000621  00000-0  57111-4 0  9998,2 52577  53.2184  54.2115 0001393  95.1835 264.9316 15.08844288117217,6917.867,95.437,540.696,538.769,0.0
52577.0,STARLINK-3836,PAYLOAD,2024-06-24 01:54:36,15.08845789,0.0001381,53.2183,53.6163,96.221,263.8939,6.915e-05,8.13e-06,0.0,0 STARLINK-3836,1 52577U 22051AT  24176.07958699  .00000813  00000-0  69150-4 0  9996,2 52577  53.2183  53.6163 0001381  96.2210 263.8939 15.08845789117304,6917.863,95.437,540.683,538.772,0.0
52577.0,STARLINK-3836,PAYLOAD,2024-06-24 20:59:15,15.08790522,0.0001666,53.2182,50.0469,92.0429,268.0754,0.00058481,9.019e-05,0.0,0 STARLINK-3836,1 52577U 22051AT  24176.87448591  .00009019  00000-0  58481-3 0  9990,2 52577  53.2182  50.0469 0001666  92.0429 268.0754 15.08790522117424,6918.032,95.441,541.049,538.744,0.0
52577.0,STARLINK-3836,PAYLOAD,2024-06-24 22:34:39,15.08769364,0.0001768,53.2184,49.7495,92.9602,267.1593,0.00090253,0.00014077,0.0,0 STARLINK-3836,1 52577U 22051AT  24176.94073095  .00014077  00000-0  90253-3 0  9994,2 52577  53.2184  49.7495 0001768  92.9602 267.1593 15.08769364117369,6918.096,95.442,541.184,538.738,0.0
52577.0,STARLINK-3836,PAYLOAD,2024-06-25 20:50:01,15.08832658,0.0001513,53.2184,45.5842,95.8003,264.3162,0.00012262,1.664e-05,0.0,0 STARLINK-3836,1 52577U 22051AT  24177.86807572  .00001664  00000-0  12262-3 0  9993,2 52577  53.2184  45.5842 0001513  95.8003 264.3162 15.08832658117575,6917.903,95.438,540.815,538.721,0.0
52577.0,STARLINK-3836,PAYLOAD,2024-06-26 22:16:12,15.08835948,0.0001478,53.2177,40.8287,89.9536,270.1626,2.286e-05,7.6e-07,0.0,0 STARLINK-3836,1 52577U 22051AT  24178.92792033  .00000076  00000-0  22860-4 0  9998,2 52577  53.2177  40.8287 0001478  89.9536 270.1626 15.08835948117668,6917.893,95.438,540.78,538.735,0.0
52577.0,STARLINK-3836,PAYLOAD,2024-06-27 22:06:59,15.08841473,0.0001407,53.2173,36.3708,83.4479,276.6673,-1.3219e-05,-4.98e-06,0.0,0 STARLINK-3836,1 52577U 22051AT  24179.92152027 -.00000498  00000-0 -13219-4 0  9990,2 52577  53.2173  36.3708 0001407  83.4479 276.6673 15.08841473117819,6917.876,95.437,540.714,538.768,0.0
52577.0,STARLINK-3836,PAYLOAD,2024-06-28 07:39:18,15.08836524,0.0001378,53.2169,34.5895,84.1051,276.0098,5.5141e-05,5.9e-06,0.0,0 STARLINK-3836,1 52577U 22051AT  24180.31896340  .00000590  00000-0  55141-4 0  9999,2 52577  53.2169  34.5895 0001378  84.1051 276.0098 15.08836524117942,6917.891,95.438,540.709,538.803,0.0
